{
  "type": "FeatureCollection",
  "features": [
    {
      "type": "Feature",
      "properties": {
        "norad_id": 32393,
        "name": "COSMOS 2434 (721)",
        "group": "gnss",
        "lat": 35.06879205076258,
        "lon": -142.46947996646992,
        "alt_km": 19115.553549668744,
        "timestamp": "2025-12-25T11:37:44.677532+00:00",
        "meta_object_name": "COSMOS 2434 (721)",
        "meta_object_id": "2007-065A",
        "meta_epoch": "2025-12-25T04:50:38.690880",
        "meta_mean_motion": 2.13101426,
        "meta_eccentricity": 0.0004815,
        "meta_inclination": 64.316,
        "meta_ra_of_asc_node": 197.7825,
        "meta_arg_of_pericenter": 72.3335,
        "meta_mean_anomaly": 110.4789,
        "meta_ephemeris_type": 0,
        "meta_classification_type": "U",
        "meta_norad_cat_id": 32393,
        "meta_element_set_no": 999,
        "meta_rev_at_epoch": 14006,
        "meta_bstar": 0,
        "meta_mean_motion_dot": 1.04e-06,
        "meta_mean_motion_ddot": 0,
        "tle_line1": "1 32393U 07065A   25359.20183670  .00000104  00000+0  00000+0 0  9992",
        "tle_line2": "2 32393  64.3160 197.7825 0004815  72.3335 110.4789  2.13101426140063"
      },
      "geometry": {
        "type": "Point",
        "coordinates": [
          -142.46947996646992,
          35.06879205076258
        ]
      }
    },
    {
      "type": "Feature",
      "properties": {
        "norad_id": 32395,
        "name": "COSMOS 2436 (723)",
        "group": "gnss",
        "lat": 6.497356032061309,
        "lon": 14.705501832403272,
        "alt_km": 19173.045984369972,
        "timestamp": "2025-12-25T11:37:44.677543+00:00",
        "meta_object_name": "COSMOS 2436 (723)",
        "meta_object_id": "2007-065C",
        "meta_epoch": "2025-12-25T01:12:08.218368",
        "meta_mean_motion": 2.13100207,
        "meta_eccentricity": 0.0017813,
        "meta_inclination": 64.3246,
        "meta_ra_of_asc_node": 197.8581,
        "meta_arg_of_pericenter": 10.2365,
        "meta_mean_anomaly": 189.1896,
        "meta_ephemeris_type": 0,
        "meta_classification_type": "U",
        "meta_norad_cat_id": 32395,
        "meta_element_set_no": 999,
        "meta_rev_at_epoch": 14001,
        "meta_bstar": 0,
        "meta_mean_motion_dot": 1.03e-06,
        "meta_mean_motion_ddot": 0,
        "tle_line1": "1 32395U 07065C   25359.05009512  .00000103  00000+0  00000+0 0  9998",
        "tle_line2": "2 32395  64.3246 197.8581 0017813  10.2365 189.1896  2.13100207140019"
      },
      "geometry": {
        "type": "Point",
        "coordinates": [
          14.705501832403272,
          6.497356032061309
        ]
      }
    },
    {
      "type": "Feature",
      "properties": {
        "norad_id": 32711,
        "name": "GPS BIIRM-6 (PRN 07)",
        "group": "gnss",
        "lat": -49.08344094650309,
        "lon": 32.35628577508891,
        "alt_km": 19649.43027818907,
        "timestamp": "2025-12-25T11:37:44.677555+00:00",
        "meta_object_name": "GPS BIIRM-6 (PRN 07)",
        "meta_object_id": "2008-012A",
        "meta_epoch": "2025-12-24T15:20:51.280224",
        "meta_mean_motion": 2.00566104,
        "meta_eccentricity": 0.0202975,
        "meta_inclination": 54.4784,
        "meta_ra_of_asc_node": 156.8979,
        "meta_arg_of_pericenter": 245.0885,
        "meta_mean_anomaly": 112.7759,
        "meta_ephemeris_type": 0,
        "meta_classification_type": "U",
        "meta_norad_cat_id": 32711,
        "meta_element_set_no": 999,
        "meta_rev_at_epoch": 13025,
        "meta_bstar": 0,
        "meta_mean_motion_dot": 9.3e-07,
        "meta_mean_motion_ddot": 0,
        "tle_line1": "1 32711U 08012A   25358.63948241  .00000093  00000+0  00000+0 0  9995",
        "tle_line2": "2 32711  54.4784 156.8979 0202975 245.0885 112.7759  2.00566104130257"
      },
      "geometry": {
        "type": "Point",
        "coordinates": [
          32.35628577508891,
          -49.08344094650309
        ]
      }
    },
    {
      "type": "Feature",
      "properties": {
        "norad_id": 35752,
        "name": "GPS BIIRM-8 (PRN 05)",
        "group": "gnss",
        "lat": -56.03111259520408,
        "lon": -59.60980518903483,
        "alt_km": 20324.464904430704,
        "timestamp": "2025-12-25T11:37:44.677567+00:00",
        "meta_object_name": "GPS BIIRM-8 (PRN 05)",
        "meta_object_id": "2009-043A",
        "meta_epoch": "2025-12-25T01:50:05.502048",
        "meta_mean_motion": 2.00564872,
        "meta_eccentricity": 0.0051573,
        "meta_inclination": 56.0995,
        "meta_ra_of_asc_node": 34.2967,
        "meta_arg_of_pericenter": 81.7083,
        "meta_mean_anomaly": 251.5447,
        "meta_ephemeris_type": 0,
        "meta_classification_type": "U",
        "meta_norad_cat_id": 35752,
        "meta_element_set_no": 999,
        "meta_rev_at_epoch": 11986,
        "meta_bstar": 0,
        "meta_mean_motion_dot": -5.1e-07,
        "meta_mean_motion_ddot": 0,
        "tle_line1": "1 35752U 09043A   25359.07645257 -.00000051  00000+0  00000+0 0  9993",
        "tle_line2": "2 35752  56.0995  34.2967 0051573  81.7083 251.5447  2.00564872119864"
      },
      "geometry": {
        "type": "Point",
        "coordinates": [
          -59.60980518903483,
          -56.03111259520408
        ]
      }
    },
    {
      "type": "Feature",
      "properties": {
        "norad_id": 36111,
        "name": "COSMOS 2456 (730)",
        "group": "gnss",
        "lat": -15.191152878171351,
        "lon": -95.78527106370596,
        "alt_km": 19133.526355946367,
        "timestamp": "2025-12-25T11:37:44.677578+00:00",
        "meta_object_name": "COSMOS 2456 (730)",
        "meta_object_id": "2009-070A",
        "meta_epoch": "2025-12-24T09:16:29.146080",
        "meta_mean_motion": 2.13103739,
        "meta_eccentricity": 0.00036447,
        "meta_inclination": 64.9059,
        "meta_ra_of_asc_node": 76.94,
        "meta_arg_of_pericenter": 294.9884,
        "meta_mean_anomaly": 139.4332,
        "meta_ephemeris_type": 0,
        "meta_classification_type": "U",
        "meta_norad_cat_id": 36111,
        "meta_element_set_no": 999,
        "meta_rev_at_epoch": 12470,
        "meta_bstar": 0,
        "meta_mean_motion_dot": -1e-08,
        "meta_mean_motion_ddot": 0,
        "tle_line1": "1 36111U 09070A   25358.38644845 -.00000001  00000+0  00000+0 0  9993",
        "tle_line2": "2 36111  64.9059  76.9400 0003644 294.9884 139.4332  2.13103739124702"
      },
      "geometry": {
        "type": "Point",
        "coordinates": [
          -95.78527106370596,
          -15.191152878171351
        ]
      }
    },
    {
      "type": "Feature",
      "properties": {
        "norad_id": 36112,
        "name": "COSMOS 2457 (733)",
        "group": "gnss",
        "lat": -30.562504133800108,
        "lon": 60.71116398875081,
        "alt_km": 19145.08446265046,
        "timestamp": "2025-12-25T11:37:44.677589+00:00",
        "meta_object_name": "COSMOS 2457 (733)",
        "meta_object_id": "2009-070B",
        "meta_epoch": "2025-12-23T15:49:23.328192",
        "meta_mean_motion": 2.13101141,
        "meta_eccentricity": 0.00045057,
        "meta_inclination": 64.8913,
        "meta_ra_of_asc_node": 76.812,
        "meta_arg_of_pericenter": 162.7292,
        "meta_mean_anomaly": 202.8862,
        "meta_ephemeris_type": 0,
        "meta_classification_type": "U",
        "meta_norad_cat_id": 36112,
        "meta_element_set_no": 999,
        "meta_rev_at_epoch": 12469,
        "meta_bstar": 0,
        "meta_mean_motion_dot": -1e-08,
        "meta_mean_motion_ddot": 0,
        "tle_line1": "1 36112U 09070B   25357.65929778 -.00000001  00000+0  00000+0 0  9994",
        "tle_line2": "2 36112  64.8913  76.8120 0004505 162.7292 202.8862  2.13101141124697"
      },
      "geometry": {
        "type": "Point",
        "coordinates": [
          60.71116398875081,
          -30.562504133800108
        ]
      }
    },
    {
      "type": "Feature",
      "properties": {
        "norad_id": 36402,
        "name": "COSMOS 2460 (732)",
        "group": "gnss",
        "lat": -30.965788315505847,
        "lon": -55.523038631522354,
        "alt_km": 19128.952812707437,
        "timestamp": "2025-12-25T11:37:44.677601+00:00",
        "meta_object_name": "COSMOS 2460 (732)",
        "meta_object_id": "2010-007C",
        "meta_epoch": "2025-12-25T05:13:15.714336",
        "meta_mean_motion": 2.13106358,
        "meta_eccentricity": 0.0002488,
        "meta_inclination": 65.5229,
        "meta_ra_of_asc_node": 320.3522,
        "meta_arg_of_pericenter": 284.3328,
        "meta_mean_anomaly": 196.3838,
        "meta_ephemeris_type": 0,
        "meta_classification_type": "U",
        "meta_norad_cat_id": 36402,
        "meta_element_set_no": 999,
        "meta_rev_at_epoch": 12302,
        "meta_bstar": 0,
        "meta_mean_motion_dot": -3.2e-07,
        "meta_mean_motion_ddot": 0,
        "tle_line1": "1 36402U 10007C   25359.21754299 -.00000032  00000+0  00000+0 0  9990",
        "tle_line2": "2 36402  65.5229 320.3522 0002488 284.3328 196.3838  2.13106358123020"
      },
      "geometry": {
        "type": "Point",
        "coordinates": [
          -55.523038631522354,
          -30.965788315505847
        ]
      }
    }
  ]
}